HO-113
1 50466U 21131B   25266.31378831  .00001164  00000-0  37633-3 0  9991
2 50466  98.5079 355.1428 0004481 165.0102 195.1221 14.40936367196674
SNUGLITE 2
1 52899U 22065F   25265.65592950  .00002060  00000-0  40683-3 0  9991
2 52899  98.1842  46.7089 0008358 138.0031 222.1813 14.63467109171853
UmKA 1 (RS40S)
1 57172U 23091G   25266.22283055  .00012172  00000-0  62575-3 0  9996
2 57172  97.5471 321.0709 0013038 334.7453  25.3140 15.16538790123481
CubeBel-2 (EU11S)
1 57175U 23091K   25266.21662867  .00019577  00000-0  87629-3 0  9993
2 57175  97.5469 322.9058 0010655 341.1919  18.8921 15.21266416123606
ENSO
1 58470U 23185J   25265.87349204  .00212868  00000-0  15756-2 0  9993
2 58470  97.3609 345.3295 0002510  57.5685 302.5821 15.72293598101470
SONATE-2
1 59112U 24043Q   25265.61316617  .00034229  00000-0  87208-3 0  9990
2 59112  97.5268  39.2304 0010888  99.5350 260.7126 15.39418003 86477
MO-122
1 60209U 24125G   25266.11612474  .00040124  00000-0  99739-3 0  9999
2 60209  97.2655 116.7531 0018677 115.0729 245.2459 15.40013364 68171
GRBBeta
1 60237U 24128C   25266.18156037  .00009874  00000-0  70859-3 0  9997
2 60237  61.9909  71.1207 0056824  80.1781 280.5720 15.03560392 66079
Curium One
1 60242U 24128H   25265.82443735  .00017741  00000-0  11563-2 0  9995
2 60242  61.9798  68.9517 0056642  76.9021 283.8385 15.06717893 66084
ROBUSTA-3A
1 60243U 24128J   25266.19396092  .00015628  00000-0  10367-2 0  9993
2 60243  61.9879  68.8571 0056171  74.4208 286.3075 15.06166738 66126
CatSat
1 60246U 24125J   25265.55060063  .00036081  00000-0  10786-2 0  9999
2 60246  97.2473 114.1605 0041130  80.2550 280.3334 15.33632379 66051
HYPERVIEW-1G (RS66S)
1 61772U 24199AP  25266.24027501  .00049187  00000-0  12219-2 0  9996
2 61772  97.3345 135.0932 0012755 162.9671 197.2006 15.40086188 93199
AO-123
1 61781U 24199AY  25266.20739817  .00014160  00000-0  49130-3 0  9998
2 61781  97.3368 132.6188 0015309 175.9445 184.1923 15.29787429 93029
ZIMSAT 2
1 61783U 24199BA  25266.20482223  .00103543  00000-0  18426-2 0  9993
2 61783  97.3292 136.7412 0012015 152.9718 207.2161 15.49696699 96452
HADES-R (SO-124)
1 62690U 25009CK  25266.17365659  .00106261  00000-0  28245-2 0  9991
2 62690  97.4011 347.0854 0002234 108.6825 251.4662 15.37830135 38327
HYDRA-T
1 62692U 25009CM  25266.19977580  .00110499  00000-0  28878-2 0  9997
2 62692  97.4018 347.2033 0001697 104.3130 255.8304 15.38336263 38337
JINJUSat 1B
1 63210U 25052A   25266.13726903  .00025884  00000-0  10995-2 0  9991
2 63210  97.4254 158.9948 0002911 348.1888  11.9280 15.23040793 29301
NUSHSAT 1
1 63211U 25052B   25266.17367866  .00029408  00000-0  12290-2 0  9991
2 63211  97.4245 159.0724 0003102 355.8782   4.2429 15.23563412 29316
TEVEL2-4
1 63213U 25052D   25266.21149915  .00027952  00000-0  11833-2 0  9995
2 63213  97.4161 158.8155 0003246  20.8048 339.3321 15.23136943 29311
TEVEL2-5
1 63214U 25052E   25266.21402763  .00027258  00000-0  11554-2 0  9998
2 63214  97.4159 158.8128 0003275  21.7246 338.4129 15.23098730 29318
TEVEL2-6
1 63215U 25052F   25266.21894960  .00027428  00000-0  11640-2 0  9998
2 63215  97.4161 158.8093 0003343  21.2756 338.8619 15.23057535 29316
TEVEL2-1
1 63217U 25052H   25266.18058536  .00027481  00000-0  11752-2 0  9990
2 63217  97.4135 158.6458 0004046  29.1921 330.9541 15.22795081 29304
TEVEL2-3
1 63218U 25052J   25266.18059714  .00027970  00000-0  11956-2 0  9999
2 63218  97.4140 158.6483 0004180  28.0713 332.0748 15.22804619 29305
TEVEL2-2
1 63219U 25052K   25266.18131371  .00027635  00000-0  11819-2 0  9996
2 63219  97.4138 158.6460 0004076  28.8506 331.2956 15.22791644 29305
TEVEL2-9
1 63237U 25052AD  25266.20187522  .00026364  00000-0  11713-2 0  9999
2 63237  97.4200 158.4752 0008417  22.5065 337.6539 15.21478994 29284
TEVEL2-7
1 63238U 25052AE  25266.20934354  .00025833  00000-0  11509-2 0  9996
2 63238  97.4199 158.4694 0008528  22.3015 337.8590 15.21386041 29283
TEVEL2-8
1 63239U 25052AF  25266.21350623  .00025640  00000-0  11433-2 0  9991
2 63239  97.4201 158.4622 0008542  23.0312 337.1305 15.21357100 29284
HYDRA-W
1 63490U 25052BL  25265.47574578  .00059012  00000-0  20644-2 0  9998
2 63490  97.4149 158.8502 0011009  20.2560 339.9114 15.29254436 29252
HADES-ICM (SO-125)
1 63492U 25052BN  25266.18613542  .00069938  00000-0  24989-2 0  9998
2 63492  97.4153 159.4429 0011337  20.3193 339.8496 15.28504747 29356
